{
  "type": "FeatureCollection",
  "features": [
    {
      "type": "Feature",
      "properties": {
        "name": "Indian Ocean Region near India"
      },
      "geometry": {
        "type": "Polygon",
        "coordinates": [
          [
            [60.0, 5.0],
            [60.0, 25.0],
            [66.0, 25.0],
            [70.0, 20.0],
            [75.0, 18.0],
            [78.0, 15.0],
            [80.0, 10.0],
            [85.0, 5.0],
            [90.0, 5.0],
            [95.0, 10.0],
            [100.0, 15.0],
            [100.0, 0.0],
            [60.0, 0.0],
            [60.0, 5.0]
          ]
        ]
      }
    }
  ]
}
